GOES 1 (SMS-C)          
1 08366U 75100A   25289.96418133 -.00000140  00000+0  00000+0 0  9991
2 08366   5.2321 280.4852 0005531 325.2034  27.6850  1.00227785182629
GOES 2                  
1 10061U 77048A   25289.66526659 -.00000053  00000+0  00000+0 0  9992
2 10061   7.0038 295.3617 0011138  40.3646 121.2023  0.99400356 43855
GOES 3                  
1 10953U 78062A   25290.10518861  .00000007  00000+0  00000+0 0  9994
2 10953   7.4557 301.0146 0002954 289.6596  84.8269  0.99358123126127
GOES 4                  
1 11964U 80074A   25290.00508817 -.00000185  00000+0  00000+0 0  9990
2 11964   8.5181 304.7469 0029966 104.0501  85.3730  0.99229142125026
GOES 5                  
1 12472U 81049A   25289.97042137 -.00000304  00000+0  00000+0 0  9993
2 12472   9.7981 317.2347 0004374 291.2338  58.4833  1.00254246120407
GOES 6                  
1 14050U 83041A   25290.10986862 -.00000241  00000+0  00000+0 0  9990
2 14050  10.5817 322.7847 0004028 247.0809 131.1471  1.00233132213583
GOES 7                  
1 17561U 87022A   25288.71037428  .00000087  00000+0  00000+0 0  9999
2 17561  13.1506 339.3474 0000520   4.8807 350.4460  0.99891756124514
GOES 8                  
1 23051U 94022A   25289.70411480 -.00000262  00000+0  00000+0 0  9998
2 23051  14.2214  15.5042 0002102  95.8405 298.3654  0.98906712121722
GOES 9                  
1 23581U 95025A   25289.18660083 -.00000162  00000+0  00000+0 0  9996
2 23581  13.7451  16.3044 0008387 181.3254 192.4269  0.98799800110353
GOES 10                 
1 24786U 97019A   25290.11628198 -.00000230  00000+0  00000+0 0  9991
2 24786  12.8399  22.8250 0032186 229.7734 122.7073  0.99125241103654
GOES 11                 
1 26352U 00022A   25290.09019522 -.00000192  00000+0  00000+0 0  9999
2 26352  11.2859  48.7603 0005532 204.8340 341.1338  0.99045241 50068
GOES 12                 
1 26871U 01031A   25289.65625321 -.00000307  00000+0  00000+0 0  9994
2 26871  11.7402  39.2891 0005394 269.2622 100.2663  0.99140531 88357
EWS-G1 (GOES 13)        
1 29155U 06018A   25290.14697505 -.00000011  00000+0  00000+0 0  9993
2 29155   3.8982  79.3670 0059191 267.6470 359.7560  0.98785147 40843
GOES 14                 
1 35491U 09033A   25290.16364252 -.00000076  00000+0  00000+0 0  9996
2 35491   1.0490  86.0709 0004014 124.3087 126.0048  1.00271465  4159
EWS-G2 (GOES 15)        
1 36411U 10008A   25289.92474781  .00000026  00000+0  00000+0 0  9998
2 36411   0.6653  85.5911 0005937 149.7539 184.6906  1.00274484 57194
GOES 16                 
1 41866U 16071A   25290.15808485 -.00000102  00000+0  00000+0 0  9999
2 41866   0.0740  68.2875 0002731 163.9319 105.9255  1.00272286 32661
GOES 17                 
1 43226U 18022A   25290.14697505 -.00000193  00000+0  00000+0 0  9997
2 43226   0.3096  90.4765 0003017 162.5755  96.2752  1.00271184 27981
GOES 18                 
1 51850U 22021A   25290.17475552  .00000086  00000+0  00000+0 0  9992
2 51850   0.0443  55.3710 0000709 214.8202  41.6622  1.00271961  4156
GOES 19                 
1 60133U 24119A   25290.11177530 -.00000259  00000+0  00000+0 0  9998
2 60133   0.0097 112.7997 0001025 163.9337  74.2014  1.00271042  4523